NORAD_CAT_ID,OBJECT_NAME,OBJECT_TYPE,EPOCH,MEAN_MOTION,ECCENTRICITY,INCLINATION,RA_OF_ASC_NODE,ARG_OF_PERICENTER,MEAN_ANOMALY,BSTAR,MEAN_MOTION_DOT,MEAN_MOTION_DDOT,TLE_LINE0,TLE_LINE1,TLE_LINE2,SEMIMAJOR_AXIS,PERIOD,APOGEE,PERIGEE,DECAYED
51859.0,STARLINK-3560,PAYLOAD,2024-05-06 18:47:13,15.0884843,0.0001406,53.2162,145.4336,86.3921,273.7232,0.00022521,3.299e-05,0.0,0 STARLINK-3560,1 51859U 22022H   24127.78279955  .00003299  00000-0  22521-3 0  9992,2 51859  53.2162 145.4336 0001406  86.3921 273.7232 15.08848430121725,6917.855,95.437,540.692,538.747,0.0
51859.0,STARLINK-3560,PAYLOAD,2024-05-07 07:30:19,15.08850129,0.0001492,53.2171,143.0549,90.7156,269.4007,0.00015563,2.19e-05,0.0,0 STARLINK-3560,1 51859U 22022H   24128.31272012  .00002190  00000-0  15563-3 0  9996,2 51859  53.2171 143.0549 0001492  90.7156 269.4007 15.08850129121808,6917.849,95.437,540.747,538.682,0.0
51859.0,STARLINK-3560,PAYLOAD,2024-05-07 21:48:47,15.08849599,0.0001459,53.216,140.3783,90.4185,269.6975,9.6205e-05,1.244e-05,0.0,0 STARLINK-3560,1 51859U 22022H   24128.90887773  .00001244  00000-0  96205-4 0  9999,2 51859  53.2160 140.3783 0001459  90.4185 269.6975 15.08849599121892,6917.851,95.437,540.725,538.707,0.0
51859.0,STARLINK-3560,PAYLOAD,2024-05-08 04:10:19,15.08850162,0.0001444,53.2162,139.1882,91.013,269.1027,4.3087e-05,3.98e-06,0.0,0 STARLINK-3560,1 51859U 22022H   24129.17383745  .00000398  00000-0  43087-4 0  9998,2 51859  53.2162 139.1882 0001444  91.0130 269.1027 15.08850162121937,6917.849,95.437,540.713,538.715,0.0
51859.0,STARLINK-3560,PAYLOAD,2024-05-08 07:21:05,15.0884997,0.0001433,53.2162,138.5936,90.3369,269.7787,3.3583e-05,2.47e-06,0.0,0 STARLINK-3560,1 51859U 22022H   24129.30631644  .00000247  00000-0  33583-4 0  9990,2 51859  53.2162 138.5936 0001433  90.3369 269.7787 15.08849970121950,6917.85,95.437,540.706,538.724,0.0
51859.0,STARLINK-3560,PAYLOAD,2024-05-09 05:36:29,15.08839395,0.0001324,53.2159,134.4305,88.2588,271.8555,-4.9499e-06,-3.67e-06,0.0,0 STARLINK-3560,1 51859U 22022H   24130.23368014 -.00000367  00000-0 -49499-5 0  9991,2 51859  53.2159 134.4305 0001324  88.2588 271.8555 15.08839395122092,6917.882,95.438,540.663,538.831,0.0
51859.0,STARLINK-3560,PAYLOAD,2024-05-09 07:11:53,15.08837632,0.0001327,53.2159,134.1334,87.1387,272.9757,-2.1857e-05,-6.36e-06,0.0,0 STARLINK-3560,1 51859U 22022H   24130.29992159 -.00000636  00000-0 -21857-4 0  9996,2 51859  53.2159 134.1334 0001327  87.1387 272.9757 15.08837632122109,6917.888,95.438,540.671,538.835,0.0
51859.0,STARLINK-3560,PAYLOAD,2024-05-09 16:44:11,15.08839618,0.0001293,53.2159,132.3491,85.588,274.526,-1.8064e-05,-5.75e-06,0.0,0 STARLINK-3560,1 51859U 22022H   24130.69736060 -.00000575  00000-0 -18064-4 0  9995,2 51859  53.2159 132.3491 0001293  85.5880 274.5260 15.08839618122164,6917.882,95.438,540.641,538.852,0.0
51859.0,STARLINK-3560,PAYLOAD,2024-05-10 07:02:40,15.08837663,0.0001332,53.2165,129.6739,90.1881,269.9264,5.503e-06,-2e-06,0.0,0 STARLINK-3560,1 51859U 22022H   24131.29352272 -.00000200  00000-0  55030-5 0  9990,2 51859  53.2165 129.6739 0001332  90.1881 269.9264 15.08837663122252,6917.888,95.438,540.674,538.831,0.0
51859.0,STARLINK-3560,PAYLOAD,2024-05-10 16:34:58,15.08842577,0.0001365,53.2169,127.8896,89.9017,270.2132,5.7108e-05,6.21e-06,0.0,0 STARLINK-3560,1 51859U 22022H   24131.69095872  .00000621  00000-0  57108-4 0  9997,2 51859  53.2169 127.8896 0001365  89.9017 270.2132 15.08842577122319,6917.873,95.437,540.682,538.793,0.0
51859.0,STARLINK-3560,PAYLOAD,2024-05-11 08:28:49,15.08856295,0.0001643,53.2182,124.9184,99.5397,260.5781,0.00029769,4.455e-05,0.0,0 STARLINK-3560,1 51859U 22022H   24132.35335246  .00004455  00000-0  29769-3 0  9993,2 51859  53.2182 124.9184 0001643  99.5397 260.5781 15.08856295122414,6917.831,95.437,540.832,538.559,0.0
51859.0,STARLINK-3560,PAYLOAD,2024-05-11 16:25:43,15.08867681,0.0001606,53.2173,123.429,72.2954,287.8214,0.00034031,5.136e-05,0.0,0 STARLINK-3560,1 51859U 22022H   24132.68453583  .00005136  00000-0  34031-3 0  9999,2 51859  53.2173 123.4290 0001606  72.2954 287.8214 15.08867681122461,6917.796,95.436,540.772,538.55,0.0
51859.0,STARLINK-3560,PAYLOAD,2024-05-11 22:47:17,15.08865286,0.0004131,53.2171,122.2408,78.2852,281.8603,0.00041964,6.401e-05,0.0,0 STARLINK-3560,1 51859U 22022H   24132.94951197  .00006401  00000-0  41964-3 0  9991,2 51859  53.2171 122.2408 0004131  78.2852 281.8603 15.08865286122506,6917.803,95.436,542.526,536.81,0.0
51859.0,STARLINK-3560,PAYLOAD,2024-05-12 05:08:51,15.0881995,0.0001505,53.2158,121.0504,82.0148,278.1014,-0.00022927,-3.933e-05,0.0,0 STARLINK-3560,1 51859U 22022H   24133.21448961 -.00003933  00000-0 -22927-3 0  9999,2 51859  53.2158 121.0504 0001505  82.0148 278.1014 15.08819950122544,6917.942,95.439,540.848,538.766,0.0
51859.0,STARLINK-3560,PAYLOAD,2024-05-12 08:19:38,15.08821858,0.0001598,53.2166,120.4565,82.9364,277.181,-0.00018182,-3.179e-05,0.0,0 STARLINK-3560,1 51859U 22022H   24133.34697094 -.00003179  00000-0 -18182-3 0  9996,2 51859  53.2166 120.4565 0001598  82.9364 277.1810 15.08821858122569,6917.936,95.439,540.906,538.695,0.0
51859.0,STARLINK-3560,PAYLOAD,2024-05-12 16:16:34,15.08824154,0.0001597,53.2165,118.9695,80.1894,279.9279,-0.00014673,-2.621e-05,0.0,0 STARLINK-3560,1 51859U 22022H   24133.67817300 -.00002621  00000-0 -14673-3 0  9998,2 51859  53.2165 118.9695 0001597  80.1894 279.9279 15.08824154122618,6917.929,95.439,540.899,538.689,0.0
51859.0,STARLINK-3560,PAYLOAD,2024-05-13 04:59:39,15.08825462,0.0001469,53.2163,116.5898,79.8957,280.2201,-9.8878e-05,-1.861e-05,0.0,0 STARLINK-3560,1 51859U 22022H   24134.20809556 -.00001861  00000-0 -98878-4 0  9997,2 51859  53.2163 116.5898 0001469  79.8957 280.2201 15.08825462122699,6917.925,95.438,540.806,538.774,0.0
51859.0,STARLINK-3560,PAYLOAD,2024-05-13 08:10:25,15.08825946,0.0001457,53.2163,115.995,79.4086,280.7071,-2.5755e-05,-6.98e-06,0.0,0 STARLINK-3560,1 51859U 22022H   24134.34057717 -.00000698  00000-0 -25755-4 0  9997,2 51859  53.2163 115.9950 0001457  79.4086 280.7071 15.08825946122717,6917.923,95.438,540.796,538.78,0.0
51859.0,STARLINK-3560,PAYLOAD,2024-05-13 22:28:54,15.08826535,0.0001541,53.2163,113.3188,73.1842,286.9319,0.0003653,5.528e-05,0.0,0 STARLINK-3560,1 51859U 22022H   24134.93674626  .00005528  00000-0  36530-3 0  9993,2 51859  53.2163 113.3188 0001541  73.1842 286.9319 15.08826535122805,6917.922,95.438,540.853,538.72,0.0
51859.0,STARLINK-3560,PAYLOAD,2024-05-14 08:01:13,15.08836147,0.0001518,53.2163,111.5339,74.4868,285.6291,0.00045538,6.966e-05,0.0,0 STARLINK-3560,1 51859U 22022H   24135.33418643  .00006966  00000-0  45538-3 0  9998,2 51859  53.2163 111.5339 0001518  74.4868 285.6291 15.08836147122860,6917.892,95.438,540.807,538.707,0.0
51859.0,STARLINK-3560,PAYLOAD,2024-05-14 15:58:09,15.08844739,0.000155,53.2164,110.0477,74.1241,285.9922,0.00053282,8.203e-05,0.0,0 STARLINK-3560,1 51859U 22022H   24135.66538532  .00008203  00000-0  53282-3 0  9995,2 51859  53.2164 110.0477 0001550  74.1241 285.9922 15.08844739122912,6917.866,95.437,540.803,538.659,0.0
51859.0,STARLINK-3560,PAYLOAD,2024-05-15 04:41:13,15.0886773,0.0001536,53.2162,107.668,75.3297,284.7866,0.00089574,0.00014007,0.0,0 STARLINK-3560,1 51859U 22022H   24136.19529678  .00014007  00000-0  89574-3 0  9997,2 51859  53.2162 107.6680 0001536  75.3297 284.7866 15.08867730122994,6917.796,95.436,540.723,538.598,0.0
51859.0,STARLINK-3560,PAYLOAD,2024-05-15 22:10:27,15.08864947,0.0001792,53.2178,104.3972,82.8149,277.3047,0.00027322,4.066e-05,0.0,0 STARLINK-3560,1 51859U 22022H   24136.92392716  .00004066  00000-0  27322-3 0  9996,2 51859  53.2178 104.3972 0001792  82.8149 277.3047 15.08864947123102,6917.804,95.436,540.909,538.429,0.0
51859.0,STARLINK-3560,PAYLOAD,2024-05-16 04:31:59,15.08857466,0.0001466,53.2163,103.2067,85.2115,274.9045,0.00016517,2.343e-05,0.0,0 STARLINK-3560,1 51859U 22022H   24137.18888603  .00002343  00000-0  16517-3 0  9990,2 51859  53.2163 103.2067 0001466  85.2115 274.9045 15.08857466123140,6917.827,95.436,540.706,538.678,0.0
51859.0,STARLINK-3560,PAYLOAD,2024-05-16 07:42:45,15.08857979,0.0001679,53.2163,102.6111,87.0856,273.0328,2.655e-05,1.35e-06,0.0,0 STARLINK-3560,1 51859U 22022H   24137.32136404  .00000135  00000-0  26550-4 0  9997,2 51859  53.2163 102.6111 0001679  87.0856 273.0328 15.08857979123166,6917.825,95.436,540.852,538.529,0.0
51859.0,STARLINK-3560,PAYLOAD,2024-05-16 22:01:14,15.08842316,0.0001566,53.2159,99.9341,88.5833,271.5339,-0.0001573,-2.791e-05,0.0,0 STARLINK-3560,1 51859U 22022H   24137.91752642 -.00002791  00000-0 -15730-3 0  9999,2 51859  53.2159  99.9341 0001566  88.5833 271.5339 15.08842316123254,6917.873,95.437,540.822,538.655,0.0
51859.0,STARLINK-3560,PAYLOAD,2024-05-17 04:22:47,15.08838914,0.0001255,53.2167,98.7479,85.7475,274.366,-0.00022071,-3.799e-05,0.0,0 STARLINK-3560,1 51859U 22022H   24138.18249044 -.00003799  00000-0 -22071-3 0  9991,2 51859  53.2167  98.7479 0001255  85.7475 274.3660 15.08838914123299,6917.884,95.438,540.617,538.881,0.0
51859.0,STARLINK-3560,PAYLOAD,2024-05-17 13:55:05,15.08849227,0.0001281,53.2176,96.9631,87.7737,272.3402,7.062e-06,-1.75e-06,0.0,0 STARLINK-3560,1 51859U 22022H   24138.57992438 -.00000175  00000-0  70620-5 0  9995,2 51859  53.2176  96.9631 0001281  87.7737 272.3402 15.08849227123359,6917.852,95.437,540.603,538.831,0.0
51859.0,STARLINK-3560,PAYLOAD,2024-05-17 21:52:01,15.08836627,0.0001974,53.2156,95.4733,72.9036,287.2173,4.418e-05,4.15e-06,0.0,0 STARLINK-3560,1 51859U 22022H   24138.91113323  .00000415  00000-0  44180-4 0  9998,2 51859  53.2156  95.4733 0001974  72.9036 287.2173 15.08836627123407,6917.891,95.438,541.121,538.39,0.0
51859.0,STARLINK-3560,PAYLOAD,2024-05-18 04:13:34,15.08843707,0.0001099,53.2158,94.2855,75.1582,284.9531,0.0001444,2.011e-05,0.0,0 STARLINK-3560,1 51859U 22022H   24139.17608827  .00002011  00000-0  14440-3 0  9994,2 51859  53.2158  94.2855 0001099  75.1582 284.9531 15.08843707123443,6917.869,95.437,540.494,538.974,0.0
